SL-14 R/B               
1 16792U 86046B   26063.14949252  .00000650  00000+0  72140-4 0  9990
2 16792  82.4782  85.4182 0021675 244.7407 115.1563 14.85584293125587
SL-14 R/B               
1 16882U 86055B   26063.20524310  .00000654  00000+0  72581-4 0  9994
2 16882  82.5211 131.8289 0018660 355.1339  26.7431 14.85637119118556
AJISAI (EGS)            
1 16908U 86061A   26063.18112558 -.00000075  00000+0  15966-3 0  9995
2 16908  50.0080 110.2871 0011252 272.8274 187.0364 12.44515547467310
COSMOS 1812             
1 17295U 87003A   26063.17205638  .02726729 -12260-5  80850-3 0  9997
2 17295  82.4699 201.9089 0008504 284.5620  75.4729 16.27104390143596
SL-14 R/B               
1 17567U 87024B   26063.11758578  .00000626  00000+0  68603-4 0  9996
2 17567  82.5252  98.0024 0016678 280.1025  79.8310 14.86126166 87308
COSMOS 1833             
1 17589U 87027A   26063.12631873 -.00000129  00000+0 -42947-4 0  9995
2 17589  70.9233 337.7106 0024525 222.2496 137.6736 14.13056019  9538
SL-16 R/B               
1 17590U 87027B   26063.04552534 -.00000174  00000+0 -62335-4 0  9997
2 17590  71.0017 288.3896 0003689 154.9319 205.1984 14.17166308 14542
SL-14 R/B               
1 17912U 87038B   26063.10969137  .00000602  00000+0  66979-4 0  9997
2 17912  82.5012 302.0645 0019194 178.5946 181.5328 14.85363720 78400
COSMOS 1844             
1 17973U 87041A   26063.16739676 -.00000075  00000+0 -13636-4 0  9995
2 17973  70.8995  45.8229 0029696  26.1503 334.1111 14.14553240  2809
SL-14 R/B               
1 18153U 87055B   26062.81820230  .00000821  00000+0  91673-4 0  9993
2 18153  82.5029 354.5633 0021634  36.5793 323.6895 14.85621277 69064
COSMOS 1867             
1 18187U 87060A   26063.13179151  .00000027  00000+0  47656-4 0  9991
2 18187  65.0119 322.2699 0014404 278.3036  81.6415 14.31502083 19141
SL-14 R/B               
1 18749U 88001B   26062.81308633  .00000808  00000+0  90674-4 0  9999
2 18749  82.5143 200.8861 0016618 256.7672 103.1690 14.85519361 41150
