CCSDS_OMM_VERS = 2.0
CREATION_DATE  = 
ORIGINATOR     = 

OBJECT_NAME    = SL-14 R/B
OBJECT_ID      = 1986-046B
CENTER_NAME    = EARTH
REF_FRAME      = TEME
TIME_SYSTEM    = UTC
MEAN_ELEMENT_THEORY = SGP/SGP4

EPOCH          = 2026-03-04T03:35:16.153728
MEAN_MOTION    = 14.85584293
ECCENTRICITY   = .0021675
INCLINATION    = 82.4782
RA_OF_ASC_NODE = 85.4182
ARG_OF_PERICENTER = 244.7407
MEAN_ANOMALY   = 115.1563

EPHEMERIS_TYPE = 0
CLASSIFICATION_TYPE = U
NORAD_CAT_ID   = 16792
ELEMENT_SET_NO = 999
REV_AT_EPOCH   = 12558
BSTAR          = .7214E-4
MEAN_MOTION_DOT = .65E-5
MEAN_MOTION_DDOT = 0

CCSDS_OMM_VERS = 2.0
CREATION_DATE  = 
ORIGINATOR     = 

OBJECT_NAME    = SL-14 R/B
OBJECT_ID      = 1986-055B
CENTER_NAME    = EARTH
REF_FRAME      = TEME
TIME_SYSTEM    = UTC
MEAN_ELEMENT_THEORY = SGP/SGP4

EPOCH          = 2026-03-04T04:55:33.003840
MEAN_MOTION    = 14.85637119
ECCENTRICITY   = .001866
INCLINATION    = 82.5211
RA_OF_ASC_NODE = 131.8289
ARG_OF_PERICENTER = 355.1339
MEAN_ANOMALY   = 26.7431

EPHEMERIS_TYPE = 0
CLASSIFICATION_TYPE = U
NORAD_CAT_ID   = 16882
ELEMENT_SET_NO = 999
REV_AT_EPOCH   = 11855
BSTAR          = .72581E-4
MEAN_MOTION_DOT = .654E-5
MEAN_MOTION_DDOT = 0

CCSDS_OMM_VERS = 2.0
CREATION_DATE  = 
ORIGINATOR     = 

OBJECT_NAME    = AJISAI (EGS)
OBJECT_ID      = 1986-061A
CENTER_NAME    = EARTH
REF_FRAME      = TEME
TIME_SYSTEM    = UTC
MEAN_ELEMENT_THEORY = SGP/SGP4

EPOCH          = 2026-03-04T04:20:49.250112
MEAN_MOTION    = 12.44515547
ECCENTRICITY   = .0011252
INCLINATION    = 50.0080
RA_OF_ASC_NODE = 110.2871
ARG_OF_PERICENTER = 272.8274
MEAN_ANOMALY   = 187.0364

EPHEMERIS_TYPE = 0
CLASSIFICATION_TYPE = U
NORAD_CAT_ID   = 16908
ELEMENT_SET_NO = 999
REV_AT_EPOCH   = 46731
BSTAR          = .15966E-3
MEAN_MOTION_DOT = -.75E-6
MEAN_MOTION_DDOT = 0

CCSDS_OMM_VERS = 2.0
CREATION_DATE  = 
ORIGINATOR     = 

OBJECT_NAME    = COSMOS 1812
OBJECT_ID      = 1987-003A
CENTER_NAME    = EARTH
REF_FRAME      = TEME
TIME_SYSTEM    = UTC
MEAN_ELEMENT_THEORY = SGP/SGP4

EPOCH          = 2026-03-04T04:07:45.671232
MEAN_MOTION    = 16.27104390
ECCENTRICITY   = .0008504
INCLINATION    = 82.4699
RA_OF_ASC_NODE = 201.9089
ARG_OF_PERICENTER = 284.5620
MEAN_ANOMALY   = 75.4729

EPHEMERIS_TYPE = 0
CLASSIFICATION_TYPE = U
NORAD_CAT_ID   = 17295
ELEMENT_SET_NO = 999
REV_AT_EPOCH   = 14359
BSTAR          = .8085E-3
MEAN_MOTION_DOT = .2726729E-1
MEAN_MOTION_DDOT = -.1226E-5

CCSDS_OMM_VERS = 2.0
CREATION_DATE  = 
ORIGINATOR     = 

OBJECT_NAME    = SL-14 R/B
OBJECT_ID      = 1987-024B
CENTER_NAME    = EARTH
REF_FRAME      = TEME
TIME_SYSTEM    = UTC
MEAN_ELEMENT_THEORY = SGP/SGP4

EPOCH          = 2026-03-04T02:49:19.411392
MEAN_MOTION    = 14.86126166
ECCENTRICITY   = .0016678
INCLINATION    = 82.5252
RA_OF_ASC_NODE = 98.0024
ARG_OF_PERICENTER = 280.1025
MEAN_ANOMALY   = 79.8310

EPHEMERIS_TYPE = 0
CLASSIFICATION_TYPE = U
NORAD_CAT_ID   = 17567
ELEMENT_SET_NO = 999
REV_AT_EPOCH   = 8730
BSTAR          = .68603E-4
MEAN_MOTION_DOT = .626E-5
MEAN_MOTION_DDOT = 0

CCSDS_OMM_VERS = 2.0
CREATION_DATE  = 
ORIGINATOR     = 

OBJECT_NAME    = COSMOS 1833
OBJECT_ID      = 1987-027A
CENTER_NAME    = EARTH
REF_FRAME      = TEME
TIME_SYSTEM    = UTC
MEAN_ELEMENT_THEORY = SGP/SGP4

EPOCH          = 2026-03-04T03:01:53.938272
MEAN_MOTION    = 14.13056019
ECCENTRICITY   = .0024525
INCLINATION    = 70.9233
RA_OF_ASC_NODE = 337.7106
ARG_OF_PERICENTER = 222.2496
MEAN_ANOMALY   = 137.6736

EPHEMERIS_TYPE = 0
CLASSIFICATION_TYPE = U
NORAD_CAT_ID   = 17589
ELEMENT_SET_NO = 999
REV_AT_EPOCH   = 953
BSTAR          = -.42947E-4
MEAN_MOTION_DOT = -.129E-5
MEAN_MOTION_DDOT = 0

CCSDS_OMM_VERS = 2.0
CREATION_DATE  = 
ORIGINATOR     = 

OBJECT_NAME    = SL-16 R/B
OBJECT_ID      = 1987-027B
CENTER_NAME    = EARTH
REF_FRAME      = TEME
TIME_SYSTEM    = UTC
MEAN_ELEMENT_THEORY = SGP/SGP4

EPOCH          = 2026-03-04T01:05:33.389376
MEAN_MOTION    = 14.17166308
ECCENTRICITY   = .0003689
INCLINATION    = 71.0017
RA_OF_ASC_NODE = 288.3896
ARG_OF_PERICENTER = 154.9319
MEAN_ANOMALY   = 205.1984

EPHEMERIS_TYPE = 0
CLASSIFICATION_TYPE = U
NORAD_CAT_ID   = 17590
ELEMENT_SET_NO = 999
REV_AT_EPOCH   = 1454
BSTAR          = -.62335E-4
MEAN_MOTION_DOT = -.174E-5
MEAN_MOTION_DDOT = 0

CCSDS_OMM_VERS = 2.0
CREATION_DATE  = 
ORIGINATOR     = 

OBJECT_NAME    = SL-14 R/B
OBJECT_ID      = 1987-038B
CENTER_NAME    = EARTH
REF_FRAME      = TEME
TIME_SYSTEM    = UTC
MEAN_ELEMENT_THEORY = SGP/SGP4

EPOCH          = 2026-03-04T02:37:57.334368
MEAN_MOTION    = 14.85363720
ECCENTRICITY   = .0019194
INCLINATION    = 82.5012
RA_OF_ASC_NODE = 302.0645
ARG_OF_PERICENTER = 178.5946
MEAN_ANOMALY   = 181.5328

EPHEMERIS_TYPE = 0
CLASSIFICATION_TYPE = U
NORAD_CAT_ID   = 17912
ELEMENT_SET_NO = 999
REV_AT_EPOCH   = 7840
BSTAR          = .66979E-4
MEAN_MOTION_DOT = .602E-5
MEAN_MOTION_DDOT = 0

CCSDS_OMM_VERS = 2.0
CREATION_DATE  = 
ORIGINATOR     = 

OBJECT_NAME    = COSMOS 1844
OBJECT_ID      = 1987-041A
CENTER_NAME    = EARTH
REF_FRAME      = TEME
TIME_SYSTEM    = UTC
MEAN_ELEMENT_THEORY = SGP/SGP4

EPOCH          = 2026-03-04T04:01:03.080064
MEAN_MOTION    = 14.14553240
ECCENTRICITY   = .0029696
INCLINATION    = 70.8995
RA_OF_ASC_NODE = 45.8229
ARG_OF_PERICENTER = 26.1503
MEAN_ANOMALY   = 334.1111

EPHEMERIS_TYPE = 0
CLASSIFICATION_TYPE = U
NORAD_CAT_ID   = 17973
ELEMENT_SET_NO = 999
REV_AT_EPOCH   = 280
BSTAR          = -.13636E-4
MEAN_MOTION_DOT = -.75E-6
MEAN_MOTION_DDOT = 0

CCSDS_OMM_VERS = 2.0
CREATION_DATE  = 
ORIGINATOR     = 

OBJECT_NAME    = SL-14 R/B
OBJECT_ID      = 1987-055B
CENTER_NAME    = EARTH
REF_FRAME      = TEME
TIME_SYSTEM    = UTC
MEAN_ELEMENT_THEORY = SGP/SGP4

EPOCH          = 2026-03-03T19:38:12.678720
MEAN_MOTION    = 14.85621277
ECCENTRICITY   = .0021634
INCLINATION    = 82.5029
RA_OF_ASC_NODE = 354.5633
ARG_OF_PERICENTER = 36.5793
MEAN_ANOMALY   = 323.6895

EPHEMERIS_TYPE = 0
CLASSIFICATION_TYPE = U
NORAD_CAT_ID   = 18153
ELEMENT_SET_NO = 999
REV_AT_EPOCH   = 6906
BSTAR          = .91673E-4
MEAN_MOTION_DOT = .821E-5
MEAN_MOTION_DDOT = 0

CCSDS_OMM_VERS = 2.0
CREATION_DATE  = 
ORIGINATOR     = 

OBJECT_NAME    = COSMOS 1867
OBJECT_ID      = 1987-060A
CENTER_NAME    = EARTH
REF_FRAME      = TEME
TIME_SYSTEM    = UTC
MEAN_ELEMENT_THEORY = SGP/SGP4

EPOCH          = 2026-03-04T03:09:46.786464
MEAN_MOTION    = 14.31502083
ECCENTRICITY   = .0014404
INCLINATION    = 65.0119
RA_OF_ASC_NODE = 322.2699
ARG_OF_PERICENTER = 278.3036
MEAN_ANOMALY   = 81.6415

EPHEMERIS_TYPE = 0
CLASSIFICATION_TYPE = U
NORAD_CAT_ID   = 18187
ELEMENT_SET_NO = 999
REV_AT_EPOCH   = 1914
BSTAR          = .47656E-4
MEAN_MOTION_DOT = .27E-6
MEAN_MOTION_DDOT = 0

CCSDS_OMM_VERS = 2.0
CREATION_DATE  = 
ORIGINATOR     = 

OBJECT_NAME    = SL-14 R/B
OBJECT_ID      = 1988-001B
CENTER_NAME    = EARTH
REF_FRAME      = TEME
TIME_SYSTEM    = UTC
MEAN_ELEMENT_THEORY = SGP/SGP4

EPOCH          = 2026-03-03T19:30:50.658912
MEAN_MOTION    = 14.85519361
ECCENTRICITY   = .0016618
INCLINATION    = 82.5143
RA_OF_ASC_NODE = 200.8861
ARG_OF_PERICENTER = 256.7672
MEAN_ANOMALY   = 103.1690

EPHEMERIS_TYPE = 0
CLASSIFICATION_TYPE = U
NORAD_CAT_ID   = 18749
ELEMENT_SET_NO = 999
REV_AT_EPOCH   = 4115
BSTAR          = .90674E-4
MEAN_MOTION_DOT = .808E-5
MEAN_MOTION_DDOT = 0

